CCSDS_OMM_VERS = 2.0
CREATION_DATE  = 
ORIGINATOR     = 

OBJECT_NAME    = STARLINK-36874
OBJECT_ID      = 2026-038W
CENTER_NAME    = EARTH
REF_FRAME      = TEME
TIME_SYSTEM    = UTC
MEAN_ELEMENT_THEORY = SGP/SGP4

EPOCH          = 2026-03-12T14:00:01.999872
MEAN_MOTION    = 15.81316052
ECCENTRICITY   = .00017703
INCLINATION    = 97.2702
RA_OF_ASC_NODE = 82.0751
ARG_OF_PERICENTER = 82.6666
MEAN_ANOMALY   = 348.5325

EPHEMERIS_TYPE = 0
CLASSIFICATION_TYPE = U
NORAD_CAT_ID   = 67981
ELEMENT_SET_NO = 999
REV_AT_EPOCH   = 366
BSTAR          = -.12186934E-1
MEAN_MOTION_DOT = -.2062117E-1
MEAN_MOTION_DDOT = 0

CCSDS_OMM_VERS = 2.0
CREATION_DATE  = 
ORIGINATOR     = 

OBJECT_NAME    = STARLINK-36879
OBJECT_ID      = 2026-038X
CENTER_NAME    = EARTH
REF_FRAME      = TEME
TIME_SYSTEM    = UTC
MEAN_ELEMENT_THEORY = SGP/SGP4

EPOCH          = 2026-03-12T14:00:01.999872
MEAN_MOTION    = 15.81300651
ECCENTRICITY   = .00018061
INCLINATION    = 97.2696
RA_OF_ASC_NODE = 82.0775
ARG_OF_PERICENTER = 67.5490
MEAN_ANOMALY   = 10.0483

EPHEMERIS_TYPE = 0
CLASSIFICATION_TYPE = U
NORAD_CAT_ID   = 67982
ELEMENT_SET_NO = 999
REV_AT_EPOCH   = 366
BSTAR          = -.89244128E-2
MEAN_MOTION_DOT = -.1538986E-1
MEAN_MOTION_DDOT = 0

CCSDS_OMM_VERS = 2.0
CREATION_DATE  = 
ORIGINATOR     = 

OBJECT_NAME    = STARLINK-36867
OBJECT_ID      = 2026-038Y
CENTER_NAME    = EARTH
REF_FRAME      = TEME
TIME_SYSTEM    = UTC
MEAN_ELEMENT_THEORY = SGP/SGP4

EPOCH          = 2026-03-12T14:00:01.999872
MEAN_MOTION    = 15.81043629
ECCENTRICITY   = .00011746
INCLINATION    = 97.2684
RA_OF_ASC_NODE = 82.0829
ARG_OF_PERICENTER = 94.8832
MEAN_ANOMALY   = 355.8722

EPHEMERIS_TYPE = 0
CLASSIFICATION_TYPE = U
NORAD_CAT_ID   = 67983
ELEMENT_SET_NO = 999
REV_AT_EPOCH   = 366
BSTAR          = -.29825178E-2
MEAN_MOTION_DOT = -.542946E-2
MEAN_MOTION_DDOT = 0

CCSDS_OMM_VERS = 2.0
CREATION_DATE  = 
ORIGINATOR     = 

OBJECT_NAME    = STARLINK-36266
OBJECT_ID      = 2026-038Z
CENTER_NAME    = EARTH
REF_FRAME      = TEME
TIME_SYSTEM    = UTC
MEAN_ELEMENT_THEORY = SGP/SGP4

EPOCH          = 2026-03-12T14:00:01.999872
MEAN_MOTION    = 15.81252539
ECCENTRICITY   = .00014626
INCLINATION    = 97.2692
RA_OF_ASC_NODE = 82.0807
ARG_OF_PERICENTER = 94.1474
MEAN_ANOMALY   = 350.6764

EPHEMERIS_TYPE = 0
CLASSIFICATION_TYPE = U
NORAD_CAT_ID   = 67984
ELEMENT_SET_NO = 999
REV_AT_EPOCH   = 363
BSTAR          = -.7266304E-2
MEAN_MOTION_DOT = -.1256728E-1
MEAN_MOTION_DDOT = 0

CCSDS_OMM_VERS = 2.0
CREATION_DATE  = 
ORIGINATOR     = 

OBJECT_NAME    = STARLINK-36802
OBJECT_ID      = 2026-038AA
CENTER_NAME    = EARTH
REF_FRAME      = TEME
TIME_SYSTEM    = UTC
MEAN_ELEMENT_THEORY = SGP/SGP4

EPOCH          = 2026-03-12T14:00:01.999872
MEAN_MOTION    = 15.81067677
ECCENTRICITY   = .00009956
INCLINATION    = 97.2681
RA_OF_ASC_NODE = 82.0846
ARG_OF_PERICENTER = 98.7014
MEAN_ANOMALY   = 357.4355

EPHEMERIS_TYPE = 0
CLASSIFICATION_TYPE = U
NORAD_CAT_ID   = 67985
ELEMENT_SET_NO = 999
REV_AT_EPOCH   = 366
BSTAR          = -.27281646E-2
MEAN_MOTION_DOT = -.49962E-2
MEAN_MOTION_DDOT = 0

CCSDS_OMM_VERS = 2.0
CREATION_DATE  = 
ORIGINATOR     = 

OBJECT_NAME    = STARLINK-36535
OBJECT_ID      = 2026-039A
CENTER_NAME    = EARTH
REF_FRAME      = TEME
TIME_SYSTEM    = UTC
MEAN_ELEMENT_THEORY = SGP/SGP4

EPOCH          = 2026-03-12T14:00:01.999872
MEAN_MOTION    = 15.82025287
ECCENTRICITY   = .00021481
INCLINATION    = 42.9993
RA_OF_ASC_NODE = 37.2039
ARG_OF_PERICENTER = 252.9158
MEAN_ANOMALY   = 92.6370

EPHEMERIS_TYPE = 0
CLASSIFICATION_TYPE = U
NORAD_CAT_ID   = 67986
ELEMENT_SET_NO = 999
REV_AT_EPOCH   = 334
BSTAR          = -.37397888E-3
MEAN_MOTION_DOT = -.78612E-3
MEAN_MOTION_DDOT = 0

CCSDS_OMM_VERS = 2.0
CREATION_DATE  = 
ORIGINATOR     = 

OBJECT_NAME    = STARLINK-36744
OBJECT_ID      = 2026-039B
CENTER_NAME    = EARTH
REF_FRAME      = TEME
TIME_SYSTEM    = UTC
MEAN_ELEMENT_THEORY = SGP/SGP4

EPOCH          = 2026-03-12T14:00:01.999872
MEAN_MOTION    = 15.82018092
ECCENTRICITY   = .00020031
INCLINATION    = 42.9994
RA_OF_ASC_NODE = 37.1929
ARG_OF_PERICENTER = 237.5774
MEAN_ANOMALY   = 112.2469

EPHEMERIS_TYPE = 0
CLASSIFICATION_TYPE = U
NORAD_CAT_ID   = 67987
ELEMENT_SET_NO = 999
REV_AT_EPOCH   = 334
BSTAR          = -.22848127E-3
MEAN_MOTION_DOT = -.48384E-3
MEAN_MOTION_DDOT = 0

CCSDS_OMM_VERS = 2.0
CREATION_DATE  = 
ORIGINATOR     = 

OBJECT_NAME    = STARLINK-36734
OBJECT_ID      = 2026-039C
CENTER_NAME    = EARTH
REF_FRAME      = TEME
TIME_SYSTEM    = UTC
MEAN_ELEMENT_THEORY = SGP/SGP4

EPOCH          = 2026-03-12T14:00:01.999872
MEAN_MOTION    = 15.73714552
ECCENTRICITY   = .00014627
INCLINATION    = 42.9994
RA_OF_ASC_NODE = 37.2566
ARG_OF_PERICENTER = 258.7395
MEAN_ANOMALY   = 65.4537

EPHEMERIS_TYPE = 0
CLASSIFICATION_TYPE = U
NORAD_CAT_ID   = 67988
ELEMENT_SET_NO = 999
REV_AT_EPOCH   = 334
BSTAR          = -.15403606E-1
MEAN_MOTION_DOT = -.1976047E-1
MEAN_MOTION_DDOT = 0

CCSDS_OMM_VERS = 2.0
CREATION_DATE  = 
ORIGINATOR     = 

OBJECT_NAME    = STARLINK-36957
OBJECT_ID      = 2026-039D
CENTER_NAME    = EARTH
REF_FRAME      = TEME
TIME_SYSTEM    = UTC
MEAN_ELEMENT_THEORY = SGP/SGP4

EPOCH          = 2026-03-12T14:00:01.999872
MEAN_MOTION    = 15.82000209
ECCENTRICITY   = .00018454
INCLINATION    = 42.9996
RA_OF_ASC_NODE = 37.1707
ARG_OF_PERICENTER = 237.1891
MEAN_ANOMALY   = 121.1860

EPHEMERIS_TYPE = 0
CLASSIFICATION_TYPE = U
NORAD_CAT_ID   = 67989
ELEMENT_SET_NO = 999
REV_AT_EPOCH   = 334
BSTAR          = .25381139E-4
MEAN_MOTION_DOT = .481E-4
MEAN_MOTION_DDOT = 0

CCSDS_OMM_VERS = 2.0
CREATION_DATE  = 
ORIGINATOR     = 

OBJECT_NAME    = STARLINK-36951
OBJECT_ID      = 2026-039E
CENTER_NAME    = EARTH
REF_FRAME      = TEME
TIME_SYSTEM    = UTC
MEAN_ELEMENT_THEORY = SGP/SGP4

EPOCH          = 2026-03-12T14:00:01.999872
MEAN_MOTION    = 15.82022395
ECCENTRICITY   = .00019521
INCLINATION    = 42.9998
RA_OF_ASC_NODE = 37.1603
ARG_OF_PERICENTER = 288.3467
MEAN_ANOMALY   = 74.2915

EPHEMERIS_TYPE = 0
CLASSIFICATION_TYPE = U
NORAD_CAT_ID   = 67990
ELEMENT_SET_NO = 999
REV_AT_EPOCH   = 334
BSTAR          = -.232636E-3
MEAN_MOTION_DOT = -.49258E-3
MEAN_MOTION_DDOT = 0

CCSDS_OMM_VERS = 2.0
CREATION_DATE  = 
ORIGINATOR     = 

OBJECT_NAME    = STARLINK-36941
OBJECT_ID      = 2026-039F
CENTER_NAME    = EARTH
REF_FRAME      = TEME
TIME_SYSTEM    = UTC
MEAN_ELEMENT_THEORY = SGP/SGP4

EPOCH          = 2026-03-12T14:00:01.999872
MEAN_MOTION    = 15.73366085
ECCENTRICITY   = .00015225
INCLINATION    = 42.9993
RA_OF_ASC_NODE = 37.2294
ARG_OF_PERICENTER = 265.5017
MEAN_ANOMALY   = 68.9700

EPHEMERIS_TYPE = 0
CLASSIFICATION_TYPE = U
NORAD_CAT_ID   = 67991
ELEMENT_SET_NO = 999
REV_AT_EPOCH   = 334
BSTAR          = -.15609832E-1
MEAN_MOTION_DOT = -.1972824E-1
MEAN_MOTION_DDOT = 0

CCSDS_OMM_VERS = 2.0
CREATION_DATE  = 
ORIGINATOR     = 

OBJECT_NAME    = STARLINK-36950
OBJECT_ID      = 2026-039G
CENTER_NAME    = EARTH
REF_FRAME      = TEME
TIME_SYSTEM    = UTC
MEAN_ELEMENT_THEORY = SGP/SGP4

EPOCH          = 2026-03-12T14:00:01.999872
MEAN_MOTION    = 15.78857207
ECCENTRICITY   = .00014988
INCLINATION    = 42.9997
RA_OF_ASC_NODE = 37.1484
ARG_OF_PERICENTER = 270.4661
MEAN_ANOMALY   = 96.3122

EPHEMERIS_TYPE = 0
CLASSIFICATION_TYPE = U
NORAD_CAT_ID   = 67992
ELEMENT_SET_NO = 999
REV_AT_EPOCH   = 334
BSTAR          = -.12278181E-1
MEAN_MOTION_DOT = -.1941787E-1
MEAN_MOTION_DDOT = 0

