STARLINK-36874          
1 67981U 26038W   26071.58335648 -.02062117  00000+0 -12187-1 0  9998
2 67981  97.2702  82.0751 0001770  82.6666 348.5325 15.81316052  3669
STARLINK-36879          
1 67982U 26038X   26071.58335648 -.01538986  00000+0 -89244-2 0  9999
2 67982  97.2696  82.0775 0001806  67.5490  10.0483 15.81300651  3669
STARLINK-36867          
1 67983U 26038Y   26071.58335648 -.00542946  00000+0 -29825-2 0  9999
2 67983  97.2684  82.0829 0001174  94.8832 355.8722 15.81043629  3663
STARLINK-36266          
1 67984U 26038Z   26071.58335648 -.01256728  00000+0 -72663-2 0  9999
2 67984  97.2692  82.0807 0001462  94.1474 350.6764 15.81252539  3632
STARLINK-36802          
1 67985U 26038AA  26071.58335648 -.00499620  00000+0 -27282-2 0  9996
2 67985  97.2681  82.0846 0000995  98.7014 357.4355 15.81067677  3665
STARLINK-36535          
1 67986U 26039A   26071.58335648 -.00078612  00000+0 -37398-3 0  9992
2 67986  42.9993  37.2039 0002148 252.9158  92.6370 15.82025287  3342
STARLINK-36744          
1 67987U 26039B   26071.58335648 -.00048384  00000+0 -22848-3 0  9990
2 67987  42.9994  37.1929 0002003 237.5774 112.2469 15.82018092  3348
STARLINK-36734          
1 67988U 26039C   26071.58335648 -.01976047  00000+0 -15404-1 0  9996
2 67988  42.9994  37.2566 0001462 258.7395  65.4537 15.73714552  3348
STARLINK-36957          
1 67989U 26039D   26071.58335648  .00004810  00000+0  25381-4 0  9992
2 67989  42.9996  37.1707 0001845 237.1891 121.1860 15.82000209  3340
STARLINK-36951          
1 67990U 26039E   26071.58335648 -.00049258  00000+0 -23264-3 0  9998
2 67990  42.9998  37.1603 0001952 288.3467  74.2915 15.82022395  3344
STARLINK-36941          
1 67991U 26039F   26071.58335648 -.01972824  00000+0 -15610-1 0  9998
2 67991  42.9993  37.2294 0001522 265.5017  68.9700 15.73366085  3347
STARLINK-36950          
1 67992U 26039G   26071.58335648 -.01941787  00000+0 -12278-1 0  9990
2 67992  42.9997  37.1484 0001498 270.4661  96.3122 15.78857207  3343
